[{"OBJECT_NAME":"STARLINK-5004","OBJECT_ID":"2022-119AP","EPOCH":"2026-03-09T22:19:47.472384","MEAN_MOTION":15.08837186,"ECCENTRICITY":0.00013472,"INCLINATION":53.2183,"RA_OF_ASC_NODE":312.8687,"ARG_OF_PERICENTER":85.7179,"MEAN_ANOMALY":274.3967,"EPHEMERIS_TYPE":0,"CLASSIFICATION_TYPE":"U","NORAD_CAT_ID":53923,"ELEMENT_SET_NO":999,"REV_AT_EPOCH":19186,"BSTAR":1.972859e-6,"MEAN_MOTION_DOT":-2.57e-6,"MEAN_MOTION_DDOT":0},{"OBJECT_NAME":"LEMUR-2-LANGER2SPACE","OBJECT_ID":"2025-061H","EPOCH":"2026-03-09T22:29:21.653952","MEAN_MOTION":15.13463796,"ECCENTRICITY":0.00153346,"INCLINATION":97.5541,"RA_OF_ASC_NODE":45.3892,"ARG_OF_PERICENTER":237.418,"MEAN_ANOMALY":122.5571,"EPHEMERIS_TYPE":0,"CLASSIFICATION_TYPE":"U","NORAD_CAT_ID":63358,"ELEMENT_SET_NO":999,"REV_AT_EPOCH":5260,"BSTAR":0.00035148431,"MEAN_MOTION_DOT":6.238e-5,"MEAN_MOTION_DDOT":0}]
